[Satellite]
VERSION=1.1
NAME=IRIDIUM 98 [+]
NICKNAME=IRIDIUM 98 [+]
TLE1=1 27451U 02031B   18020.85144818  .00000171  00000-0  54174-4 0  9999
TLE2=2 27451  86.3967 291.1705 0002023  70.5155 289.6259 14.34218088822489
